[{"OBJECT_NAME":"KANOPUS-V 3","OBJECT_ID":"2018-014A","EPOCH":"2026-03-09T18:51:55.321344","MEAN_MOTION":15.22779463,"ECCENTRICITY":0.00015305,"INCLINATION":97.3645,"RA_OF_ASC_NODE":336.3173,"ARG_OF_PERICENTER":84.6861,"MEAN_ANOMALY":275.455,"EPHEMERIS_TYPE":0,"CLASSIFICATION_TYPE":"U","NORAD_CAT_ID":43180,"ELEMENT_SET_NO":999,"REV_AT_EPOCH":44959,"BSTAR":4.5590396e-5,"MEAN_MOTION_DOT":9.96e-6,"MEAN_MOTION_DDOT":0},{"OBJECT_NAME":"YAOGAN-36 01A","OBJECT_ID":"2022-120A","EPOCH":"2026-03-09T18:17:39.175872","MEAN_MOTION":15.22125163,"ECCENTRICITY":0.00052111,"INCLINATION":34.9902,"RA_OF_ASC_NODE":190.0789,"ARG_OF_PERICENTER":178.8422,"MEAN_ANOMALY":181.2305,"EPHEMERIS_TYPE":0,"CLASSIFICATION_TYPE":"U","NORAD_CAT_ID":53943,"ELEMENT_SET_NO":999,"REV_AT_EPOCH":19214,"BSTAR":0.00051239163,"MEAN_MOTION_DOT":0.00012015,"MEAN_MOTION_DDOT":0}]
