KANOPUS-V 3             
1 43180U 18014A   26068.78605696  .00000996  00000+0  45590-4 0  9999
2 43180  97.3645 336.3173 0001530  84.6861 275.4550 15.22779463449595
YAOGAN-36 01A           
1 53943U 22120A   26068.76225898  .00012015  00000+0  51239-3 0  9991
2 53943  34.9902 190.0789 0005211 178.8422 181.2305 15.22125163192143
